ONEWEB-0512             
1 54130U 22138T   24235.83557236  .00000044  00000+0  78768-4 0  9991
2 54130  87.9100  76.9504 0001269  77.0940 283.0334 13.19726177 89314
ONEWEB-0513             
1 54131U 22138U   24236.10960122 -.00000027  00000+0 -10050-3 0  9997
2 54131  87.9096  76.8883 0001338  68.8220 291.3056 13.19727125 90100
ONEWEB-0514             
1 54132U 22138V   24235.92718336  .00000004  00000+0 -22023-4 0  9993
2 54132  87.9092  76.9180 0001794  84.3245 275.8092 13.19726005 89341
ONEWEB-0515             
1 54133U 22138W   24236.17118229  .00000121  00000+0  26452-3 0  9995
2 54133  87.9194  46.2951 0002526 109.8348 250.3058 13.20768612 92652
ONEWEB-0516             
1 54134U 22138X   24235.82608587  .00000130  00000+0  29131-3 0  9995
2 54134  87.9100  76.9537 0001678  87.5525 272.5799 13.19723057 89337
ONEWEB-0517             
1 54135U 22138Y   24236.10882982  .00000060  00000+0  11854-3 0  9996
2 54135  87.9091  76.8776 0001879  72.9345 287.1993 13.19725806 90246
ONEWEB-0518             
1 54136U 22138Z   24235.82451750  .00000092  00000+0  19670-3 0  9999
2 54136  87.9099  76.9518 0001736  81.9073 278.2256 13.19726297 89336
ONEWEB-0519             
1 54137U 22138AA  24235.92560353  .00000649  00000+0  15895-2 0  9993
2 54137  87.9091  76.9092 0001423  59.9773 300.1501 13.19723966 89351
